G21
M3 S12000
G90
G1 Z3.810 F228.6
G0 X62.551 Y50.519
G1 Z-0.800 F228.6
G1 X64.439 Y50.995 F609.6
G1 X66.187 Y51.784 F609.6
G1 X67.820 Y52.903 F609.6
G1 X69.251 Y54.280 F609.6
G1 X70.429 Y55.866 F609.6
G1 X71.413 Y57.862 F609.6
G1 X70.530 Y57.862 F609.6
G1 X69.860 Y56.499 F609.6
G1 X68.820 Y55.062 F609.6
G1 X67.644 Y53.894 F609.6
G1 X66.206 Y52.871 F609.6
G1 X64.740 Y52.139 F609.6
G1 X63.084 Y51.622 F609.6
G1 X61.430 Y51.374 F609.6
G1 X60.400 Y51.341 F609.6
G1 X58.215 Y51.576 F609.6
G1 X56.183 Y52.239 F609.6
G1 X54.320 Y53.321 F609.6
G1 X52.649 Y54.800 F609.6
G1 X51.267 Y56.557 F609.6
G1 X50.274 Y58.489 F609.6
G1 X49.687 Y60.578 F609.6
G1 X49.502 Y62.719 F609.6
G1 X49.562 Y63.910 F609.6
G1 X49.990 Y66.109 F609.6
G1 X50.820 Y68.127 F609.6
G1 X52.046 Y69.963 F609.6
G1 X53.629 Y71.582 F609.6
G1 X55.418 Y72.828 F609.6
G1 X57.386 Y73.661 F609.6
G1 X59.428 Y74.062 F609.6
G1 X60.568 Y74.111 F609.6
G1 X62.264 Y73.989 F609.6
G1 X63.920 Y73.622 F609.6
G1 X65.396 Y73.051 F609.6
G1 X66.853 Y72.203 F609.6
G1 X68.123 Y71.149 F609.6
G1 X69.167 Y69.940 F609.6
G1 X70.039 Y68.524 F609.6
G1 X70.292 Y67.939 F609.6
G1 X71.214 Y67.939 F609.6
G1 X70.255 Y69.861 F609.6
G1 X69.111 Y71.382 F609.6
G1 X67.714 Y72.691 F609.6
G1 X66.129 Y73.739 F609.6
G1 X64.409 Y74.485 F609.6
G1 X62.534 Y74.939 F609.6
G1 X60.482 Y75.092 F609.6
G1 X59.284 Y75.036 F609.6
G1 X58.123 Y74.866 F609.6
G1 X57.019 Y74.588 F609.6
G1 X55.959 Y74.196 F609.6
G1 X54.941 Y73.694 F609.6
G1 X53.950 Y73.070 F609.6
G1 X53.003 Y72.333 F609.6
G1 X52.104 Y71.485 F609.6
G1 X51.277 Y70.521 F609.6
G1 X50.564 Y69.521 F609.6
G1 X49.959 Y68.477 F609.6
G1 X49.471 Y67.409 F609.6
G1 X49.089 Y66.294 F609.6
G1 X48.820 Y65.150 F609.6
G1 X48.653 Y63.932 F609.6
G1 X48.598 Y62.686 F609.6
G1 X48.653 Y61.453 F609.6
G1 X48.816 Y60.272 F609.6
G1 X49.091 Y59.121 F609.6
G1 X49.471 Y58.019 F609.6
G1 X49.955 Y56.966 F609.6
G1 X50.565 Y55.919 F609.6
G1 X51.274 Y54.928 F609.6
G1 X52.108 Y53.958 F609.6
G1 X52.992 Y53.111 F609.6
G1 X53.933 Y52.368 F609.6
G1 X54.898 Y51.757 F609.6
G1 X55.918 Y51.253 F609.6
G1 X56.982 Y50.861 F609.6
G1 X58.096 Y50.581 F609.6
G1 X59.262 Y50.412 F609.6
G1 X60.475 Y50.357 F609.6
G1 X62.551 Y50.519 F609.6
G1 X62.657 Y49.876 F609.6
G1 X64.653 Y50.378 F609.6
G1 X66.509 Y51.217 F609.6
G1 X68.229 Y52.395 F609.6
G1 X69.741 Y53.850 F609.6
G1 X70.982 Y55.521 F609.6
G1 X71.948 Y57.407 F609.6
G1 X72.311 Y58.513 F609.6
G1 X70.124 Y58.513 F609.6
G1 X69.302 Y56.832 F609.6
G1 X68.361 Y55.522 F609.6
G1 X67.225 Y54.390 F609.6
G1 X65.915 Y53.453 F609.6
G1 X64.498 Y52.743 F609.6
G1 X62.986 Y52.265 F609.6
G1 X61.386 Y52.022 F609.6
G1 X60.465 Y51.988 F609.6
G1 X58.413 Y52.195 F609.6
G1 X56.506 Y52.803 F609.6
G1 X54.749 Y53.810 F609.6
G1 X53.158 Y55.204 F609.6
G1 X51.843 Y56.857 F609.6
G1 X50.899 Y58.669 F609.6
G1 X50.334 Y60.635 F609.6
G1 X50.152 Y62.722 F609.6
G1 X50.201 Y63.790 F609.6
G1 X50.592 Y65.865 F609.6
G1 X51.363 Y67.769 F609.6
G1 X52.513 Y69.511 F609.6
G1 X54.003 Y71.051 F609.6
G1 X55.676 Y72.231 F609.6
G1 X57.513 Y73.023 F609.6
G1 X59.500 Y73.416 F609.6
G1 X60.522 Y73.463 F609.6
G1 X62.164 Y73.347 F609.6
G1 X63.687 Y73.015 F609.6
G1 X65.113 Y72.466 F609.6
G1 X66.440 Y71.700 F609.6
G1 X67.632 Y70.724 F609.6
G1 X68.642 Y69.557 F609.6
G1 X69.442 Y68.266 F609.6
G1 X69.865 Y67.289 F609.6
G1 X72.113 Y67.289 F609.6
G1 X71.758 Y68.363 F609.6
G1 X70.807 Y70.209 F609.6
G1 X69.597 Y71.818 F609.6
G1 X68.118 Y73.203 F609.6
G1 X66.441 Y74.313 F609.6
G1 X64.617 Y75.105 F609.6
G1 X62.636 Y75.583 F609.6
G1 X60.489 Y75.744 F609.6
G1 X59.223 Y75.685 F609.6
G1 X57.999 Y75.505 F609.6
G1 X56.825 Y75.209 F609.6
G1 X55.703 Y74.795 F609.6
G1 X54.620 Y74.261 F609.6
G1 X53.578 Y73.605 F609.6
G1 X52.583 Y72.830 F609.6
G1 X51.629 Y71.931 F609.6
G1 X50.765 Y70.924 F609.6
G1 X50.017 Y69.875 F609.6
G1 X49.381 Y68.777 F609.6
G1 X48.868 Y67.652 F609.6
G1 X48.464 Y66.475 F609.6
G1 X48.179 Y65.265 F609.6
G1 X48.005 Y63.991 F609.6
G1 X47.947 Y62.686 F609.6
G1 X48.005 Y61.393 F609.6
G1 X48.177 Y60.151 F609.6
G1 X48.465 Y58.942 F609.6
G1 X48.867 Y57.778 F609.6
G1 X49.379 Y56.664 F609.6
G1 X50.018 Y55.568 F609.6
G1 X50.764 Y54.525 F609.6
G1 X51.632 Y53.515 F609.6
G1 X52.570 Y52.616 F609.6
G1 X53.555 Y51.839 F609.6
G1 X54.578 Y51.191 F609.6
G1 X55.662 Y50.654 F609.6
G1 X56.789 Y50.240 F609.6
G1 X57.974 Y49.943 F609.6
G1 X59.203 Y49.764 F609.6
G1 X60.485 Y49.705 F609.6
G1 X62.657 Y49.876 F609.6
G1 Z-0.187 F228.6
G1 X62.551 Y50.519 F609.6
G1 Z-1.000 F228.6
G1 X64.439 Y50.995 F609.6
G1 X66.187 Y51.784 F609.6
G1 X67.820 Y52.903 F609.6
G1 X69.251 Y54.280 F609.6
G1 X70.429 Y55.866 F609.6
G1 X71.413 Y57.862 F609.6
G1 X70.530 Y57.862 F609.6
G1 X69.860 Y56.499 F609.6
G1 X68.820 Y55.062 F609.6
G1 X67.644 Y53.894 F609.6
G1 X66.206 Y52.871 F609.6
G1 X64.740 Y52.139 F609.6
G1 X63.084 Y51.622 F609.6
G1 X61.430 Y51.374 F609.6
G1 X60.400 Y51.341 F609.6
G1 X58.215 Y51.576 F609.6
G1 X56.183 Y52.239 F609.6
G1 X54.320 Y53.321 F609.6
G1 X52.649 Y54.800 F609.6
G1 X51.267 Y56.557 F609.6
G1 X50.274 Y58.489 F609.6
G1 X49.687 Y60.578 F609.6
G1 X49.502 Y62.719 F609.6
G1 X49.562 Y63.910 F609.6
G1 X49.990 Y66.109 F609.6
G1 X50.820 Y68.127 F609.6
G1 X52.046 Y69.963 F609.6
G1 X53.629 Y71.582 F609.6
G1 X55.418 Y72.828 F609.6
G1 X57.386 Y73.661 F609.6
G1 X59.428 Y74.062 F609.6
G1 X60.568 Y74.111 F609.6
G1 X62.264 Y73.989 F609.6
G1 X63.920 Y73.622 F609.6
G1 X65.396 Y73.051 F609.6
G1 X66.853 Y72.203 F609.6
G1 X68.123 Y71.149 F609.6
G1 X69.167 Y69.940 F609.6
G1 X70.039 Y68.524 F609.6
G1 X70.292 Y67.939 F609.6
G1 X71.214 Y67.939 F609.6
G1 X70.255 Y69.861 F609.6
G1 X69.111 Y71.382 F609.6
G1 X67.714 Y72.691 F609.6
G1 X66.129 Y73.739 F609.6
G1 X64.409 Y74.485 F609.6
G1 X62.534 Y74.939 F609.6
G1 X60.482 Y75.092 F609.6
G1 X59.284 Y75.036 F609.6
G1 X58.123 Y74.866 F609.6
G1 X57.019 Y74.588 F609.6
G1 X55.959 Y74.196 F609.6
G1 X54.941 Y73.694 F609.6
G1 X53.950 Y73.070 F609.6
G1 X53.003 Y72.333 F609.6
G1 X52.104 Y71.485 F609.6
G1 X51.277 Y70.521 F609.6
G1 X50.564 Y69.521 F609.6
G1 X49.959 Y68.477 F609.6
G1 X49.471 Y67.409 F609.6
G1 X49.089 Y66.294 F609.6
G1 X48.820 Y65.150 F609.6
G1 X48.653 Y63.932 F609.6
G1 X48.598 Y62.686 F609.6
G1 X48.653 Y61.453 F609.6
G1 X48.816 Y60.272 F609.6
G1 X49.091 Y59.121 F609.6
G1 X49.471 Y58.019 F609.6
G1 X49.955 Y56.966 F609.6
G1 X50.565 Y55.919 F609.6
G1 X51.274 Y54.928 F609.6
G1 X52.108 Y53.958 F609.6
G1 X52.992 Y53.111 F609.6
G1 X53.933 Y52.368 F609.6
G1 X54.898 Y51.757 F609.6
G1 X55.918 Y51.253 F609.6
G1 X56.982 Y50.861 F609.6
G1 X58.096 Y50.581 F609.6
G1 X59.262 Y50.412 F609.6
G1 X60.475 Y50.357 F609.6
G1 X62.551 Y50.519 F609.6
G1 X62.657 Y49.876 F609.6
G1 X64.653 Y50.378 F609.6
G1 X66.509 Y51.217 F609.6
G1 X68.229 Y52.395 F609.6
G1 X69.741 Y53.850 F609.6
G1 X70.982 Y55.521 F609.6
G1 X71.948 Y57.407 F609.6
G1 X72.311 Y58.513 F609.6
G1 X70.124 Y58.513 F609.6
G1 X69.302 Y56.832 F609.6
G1 X68.361 Y55.522 F609.6
G1 X67.225 Y54.390 F609.6
G1 X65.915 Y53.453 F609.6
G1 X64.498 Y52.743 F609.6
G1 X62.986 Y52.265 F609.6
G1 X61.386 Y52.022 F609.6
G1 X60.465 Y51.988 F609.6
G1 X58.413 Y52.195 F609.6
G1 X56.506 Y52.803 F609.6
G1 X54.749 Y53.810 F609.6
G1 X53.158 Y55.204 F609.6
G1 X51.843 Y56.857 F609.6
G1 X50.899 Y58.669 F609.6
G1 X50.334 Y60.635 F609.6
G1 X50.152 Y62.722 F609.6
G1 X50.201 Y63.790 F609.6
G1 X50.592 Y65.865 F609.6
G1 X51.363 Y67.769 F609.6
G1 X52.513 Y69.511 F609.6
G1 X54.003 Y71.051 F609.6
G1 X55.676 Y72.231 F609.6
G1 X57.513 Y73.023 F609.6
G1 X59.500 Y73.416 F609.6
G1 X60.522 Y73.463 F609.6
G1 X62.164 Y73.347 F609.6
G1 X63.687 Y73.015 F609.6
G1 X65.113 Y72.466 F609.6
G1 X66.440 Y71.700 F609.6
G1 X67.632 Y70.724 F609.6
G1 X68.642 Y69.557 F609.6
G1 X69.442 Y68.266 F609.6
G1 X69.865 Y67.289 F609.6
G1 X72.113 Y67.289 F609.6
G1 X71.758 Y68.363 F609.6
G1 X70.807 Y70.209 F609.6
G1 X69.597 Y71.818 F609.6
G1 X68.118 Y73.203 F609.6
G1 X66.441 Y74.313 F609.6
G1 X64.617 Y75.105 F609.6
G1 X62.636 Y75.583 F609.6
G1 X60.489 Y75.744 F609.6
G1 X59.223 Y75.685 F609.6
G1 X57.999 Y75.505 F609.6
G1 X56.825 Y75.209 F609.6
G1 X55.703 Y74.795 F609.6
G1 X54.620 Y74.261 F609.6
G1 X53.578 Y73.605 F609.6
G1 X52.583 Y72.830 F609.6
G1 X51.629 Y71.931 F609.6
G1 X50.765 Y70.924 F609.6
G1 X50.017 Y69.875 F609.6
G1 X49.381 Y68.777 F609.6
G1 X48.868 Y67.652 F609.6
G1 X48.464 Y66.475 F609.6
G1 X48.179 Y65.265 F609.6
G1 X48.005 Y63.991 F609.6
G1 X47.947 Y62.686 F609.6
G1 X48.005 Y61.393 F609.6
G1 X48.177 Y60.151 F609.6
G1 X48.465 Y58.942 F609.6
G1 X48.867 Y57.778 F609.6
G1 X49.379 Y56.664 F609.6
G1 X50.018 Y55.568 F609.6
G1 X50.764 Y54.525 F609.6
G1 X51.632 Y53.515 F609.6
G1 X52.570 Y52.616 F609.6
G1 X53.555 Y51.839 F609.6
G1 X54.578 Y51.191 F609.6
G1 X55.662 Y50.654 F609.6
G1 X56.789 Y50.240 F609.6
G1 X57.974 Y49.943 F609.6
G1 X59.203 Y49.764 F609.6
G1 X60.485 Y49.705 F609.6
G1 X62.657 Y49.876 F609.6
G1 Z3.810 F228.6
G0 X79.434 Y50.550
G1 Z-0.800 F228.6
G1 X79.434 Y74.939 F609.6
G1 X78.452 Y74.939 F609.6
G1 X78.452 Y50.550 F609.6
G1 X79.434 Y50.550 F609.6
G1 X80.084 Y49.899 F609.6
G1 X80.084 Y75.589 F609.6
G1 X77.801 Y75.589 F609.6
G1 X77.801 Y49.899 F609.6
G1 X80.084 Y49.899 F609.6
G1 Z-0.187 F228.6
G1 X79.434 Y50.550 F609.6
G1 Z-1.000 F228.6
G1 X79.434 Y74.939 F609.6
G1 X78.452 Y74.939 F609.6
G1 X78.452 Y50.550 F609.6
G1 X79.434 Y50.550 F609.6
G1 X80.084 Y49.899 F609.6
G1 X80.084 Y75.589 F609.6
G1 X77.801 Y75.589 F609.6
G1 X77.801 Y49.899 F609.6
G1 X80.084 Y49.899 F609.6
G1 Z3.810 F228.6
G0 X94.100 Y50.550
G1 Z-0.800 F228.6
G1 X84.392 Y62.195 F609.6
G1 X84.251 Y63.009 F609.6
G1 X84.440 Y63.568 F609.6
G1 X93.168 Y74.939 F609.6
G1 X91.903 Y74.939 F609.6
G1 X83.102 Y63.252 F609.6
G1 X83.102 Y62.272 F609.6
G1 X92.763 Y50.550 F609.6
G1 X94.100 Y50.550 F609.6
G1 X95.490 Y49.899 F609.6
G1 X84.979 Y62.474 F609.6
G1 X84.899 Y62.954 F609.6
G1 X84.968 Y63.189 F609.6
G1 X94.486 Y75.589 F609.6
G1 X91.579 Y75.589 F609.6
G1 X82.452 Y63.469 F609.6
G1 X82.452 Y62.040 F609.6
G1 X92.456 Y49.899 F609.6
G1 X95.490 Y49.899 F609.6
G1 Z-0.187 F228.6
G1 X94.100 Y50.550 F609.6
G1 Z-1.000 F228.6
G1 X84.392 Y62.195 F609.6
G1 X84.251 Y63.009 F609.6
G1 X84.440 Y63.568 F609.6
G1 X93.168 Y74.939 F609.6
G1 X91.903 Y74.939 F609.6
G1 X83.102 Y63.252 F609.6
G1 X83.102 Y62.272 F609.6
G1 X92.763 Y50.550 F609.6
G1 X94.100 Y50.550 F609.6
G1 X95.490 Y49.899 F609.6
G1 X84.979 Y62.474 F609.6
G1 X84.899 Y62.954 F609.6
G1 X84.968 Y63.189 F609.6
G1 X94.486 Y75.589 F609.6
G1 X91.579 Y75.589 F609.6
G1 X82.452 Y63.469 F609.6
G1 X82.452 Y62.040 F609.6
G1 X92.456 Y49.899 F609.6
G1 X95.490 Y49.899 F609.6
G1 Z3.810 F228.6
G0 X112.296 Y50.519
G1 Z-0.800 F228.6
G1 X114.184 Y50.995 F609.6
G1 X115.931 Y51.784 F609.6
G1 X117.565 Y52.903 F609.6
G1 X118.996 Y54.280 F609.6
G1 X120.174 Y55.866 F609.6
G1 X121.158 Y57.862 F609.6
G1 X120.275 Y57.862 F609.6
G1 X119.605 Y56.499 F609.6
G1 X118.565 Y55.062 F609.6
G1 X117.389 Y53.894 F609.6
G1 X115.951 Y52.871 F609.6
G1 X114.485 Y52.139 F609.6
G1 X112.829 Y51.622 F609.6
G1 X111.175 Y51.374 F609.6
G1 X110.145 Y51.341 F609.6
G1 X107.960 Y51.576 F609.6
G1 X105.928 Y52.239 F609.6
G1 X104.065 Y53.321 F609.6
G1 X102.395 Y54.800 F609.6
G1 X101.012 Y56.556 F609.6
G1 X100.019 Y58.489 F609.6
G1 X99.432 Y60.578 F609.6
G1 X99.247 Y62.719 F609.6
G1 X99.307 Y63.910 F609.6
G1 X99.734 Y66.109 F609.6
G1 X100.565 Y68.127 F609.6
G1 X101.791 Y69.963 F609.6
G1 X103.374 Y71.582 F609.6
G1 X105.163 Y72.828 F609.6
G1 X107.131 Y73.661 F609.6
G1 X109.172 Y74.062 F609.6
G1 X110.313 Y74.111 F609.6
G1 X112.009 Y73.989 F609.6
G1 X113.665 Y73.622 F609.6
G1 X115.141 Y73.051 F609.6
G1 X116.598 Y72.203 F609.6
G1 X117.868 Y71.149 F609.6
G1 X118.912 Y69.940 F609.6
G1 X119.784 Y68.524 F609.6
G1 X120.037 Y67.939 F609.6
G1 X120.959 Y67.939 F609.6
G1 X120.000 Y69.861 F609.6
G1 X118.856 Y71.382 F609.6
G1 X117.459 Y72.691 F609.6
G1 X115.874 Y73.740 F609.6
G1 X114.155 Y74.485 F609.6
G1 X112.279 Y74.939 F609.6
G1 X110.227 Y75.092 F609.6
G1 X109.029 Y75.036 F609.6
G1 X107.868 Y74.866 F609.6
G1 X106.764 Y74.588 F609.6
G1 X105.704 Y74.196 F609.6
G1 X104.686 Y73.694 F609.6
G1 X103.695 Y73.070 F609.6
G1 X102.748 Y72.333 F609.6
G1 X101.849 Y71.485 F609.6
G1 X101.022 Y70.521 F609.6
G1 X100.309 Y69.521 F609.6
G1 X99.704 Y68.477 F609.6
G1 X99.216 Y67.409 F609.6
G1 X98.835 Y66.295 F609.6
G1 X98.561 Y65.139 F609.6
G1 X98.398 Y63.941 F609.6
G1 X98.343 Y62.686 F609.6
G1 X98.397 Y61.454 F609.6
G1 X98.561 Y60.270 F609.6
G1 X98.835 Y59.123 F609.6
G1 X99.216 Y58.019 F609.6
G1 X99.700 Y56.966 F609.6
G1 X100.310 Y55.919 F609.6
G1 X101.019 Y54.928 F609.6
G1 X101.853 Y53.958 F609.6
G1 X102.737 Y53.111 F609.6
G1 X103.678 Y52.368 F609.6
G1 X104.643 Y51.757 F609.6
G1 X105.663 Y51.253 F609.6
G1 X106.727 Y50.861 F609.6
G1 X107.841 Y50.581 F609.6
G1 X109.007 Y50.412 F609.6
G1 X110.220 Y50.357 F609.6
G1 X112.296 Y50.519 F609.6
G1 X112.402 Y49.876 F609.6
G1 X114.398 Y50.378 F609.6
G1 X116.253 Y51.217 F609.6
G1 X117.974 Y52.395 F609.6
G1 X119.487 Y53.850 F609.6
G1 X120.728 Y55.521 F609.6
G1 X121.693 Y57.407 F609.6
G1 X122.056 Y58.513 F609.6
G1 X119.869 Y58.513 F609.6
G1 X119.047 Y56.832 F609.6
G1 X118.106 Y55.522 F609.6
G1 X116.970 Y54.390 F609.6
G1 X115.660 Y53.453 F609.6
G1 X114.243 Y52.743 F609.6
G1 X112.731 Y52.265 F609.6
G1 X111.131 Y52.022 F609.6
G1 X110.210 Y51.988 F609.6
G1 X108.158 Y52.195 F609.6
G1 X106.251 Y52.803 F609.6
G1 X104.494 Y53.810 F609.6
G1 X102.903 Y55.204 F609.6
G1 X101.588 Y56.857 F609.6
G1 X100.643 Y58.669 F609.6
G1 X100.079 Y60.635 F609.6
G1 X99.897 Y62.722 F609.6
G1 X99.946 Y63.790 F609.6
G1 X100.337 Y65.865 F609.6
G1 X101.108 Y67.769 F609.6
G1 X102.258 Y69.511 F609.6
G1 X103.748 Y71.051 F609.6
G1 X105.421 Y72.231 F609.6
G1 X107.258 Y73.023 F609.6
G1 X109.244 Y73.416 F609.6
G1 X110.267 Y73.463 F609.6
G1 X111.909 Y73.347 F609.6
G1 X113.432 Y73.015 F609.6
G1 X114.858 Y72.466 F609.6
G1 X116.185 Y71.700 F609.6
G1 X117.377 Y70.724 F609.6
G1 X118.387 Y69.557 F609.6
G1 X119.187 Y68.266 F609.6
G1 X119.610 Y67.289 F609.6
G1 X121.858 Y67.289 F609.6
G1 X121.503 Y68.363 F609.6
G1 X120.552 Y70.209 F609.6
G1 X119.342 Y71.818 F609.6
G1 X117.863 Y73.203 F609.6
G1 X116.185 Y74.313 F609.6
G1 X114.362 Y75.105 F609.6
G1 X112.382 Y75.583 F609.6
G1 X110.234 Y75.744 F609.6
G1 X108.968 Y75.685 F609.6
G1 X107.744 Y75.505 F609.6
G1 X106.570 Y75.209 F609.6
G1 X105.448 Y74.795 F609.6
G1 X104.365 Y74.261 F609.6
G1 X103.323 Y73.605 F609.6
G1 X102.328 Y72.830 F609.6
G1 X101.374 Y71.931 F609.6
G1 X100.510 Y70.924 F609.6
G1 X99.762 Y69.875 F609.6
G1 X99.127 Y68.777 F609.6
G1 X98.613 Y67.652 F609.6
G1 X98.210 Y66.475 F609.6
G1 X97.922 Y65.256 F609.6
G1 X97.750 Y63.999 F609.6
G1 X97.692 Y62.686 F609.6
G1 X97.749 Y61.393 F609.6
G1 X97.922 Y60.152 F609.6
G1 X98.210 Y58.942 F609.6
G1 X98.612 Y57.778 F609.6
G1 X99.124 Y56.664 F609.6
G1 X99.763 Y55.568 F609.6
G1 X100.509 Y54.525 F609.6
G1 X101.377 Y53.515 F609.6
G1 X102.315 Y52.616 F609.6
G1 X103.300 Y51.839 F609.6
G1 X104.323 Y51.191 F609.6
G1 X105.408 Y50.654 F609.6
G1 X106.534 Y50.240 F609.6
G1 X107.719 Y49.943 F609.6
G1 X108.948 Y49.764 F609.6
G1 X110.230 Y49.705 F609.6
G1 X112.402 Y49.876 F609.6
G1 Z-0.187 F228.6
G1 X112.296 Y50.519 F609.6
G1 Z-1.000 F228.6
G1 X114.184 Y50.995 F609.6
G1 X115.931 Y51.784 F609.6
G1 X117.565 Y52.903 F609.6
G1 X118.996 Y54.280 F609.6
G1 X120.174 Y55.866 F609.6
G1 X121.158 Y57.862 F609.6
G1 X120.275 Y57.862 F609.6
G1 X119.605 Y56.499 F609.6
G1 X118.565 Y55.062 F609.6
G1 X117.389 Y53.894 F609.6
G1 X115.951 Y52.871 F609.6
G1 X114.485 Y52.139 F609.6
G1 X112.829 Y51.622 F609.6
G1 X111.175 Y51.374 F609.6
G1 X110.145 Y51.341 F609.6
G1 X107.960 Y51.576 F609.6
G1 X105.928 Y52.239 F609.6
G1 X104.065 Y53.321 F609.6
G1 X102.395 Y54.800 F609.6
G1 X101.012 Y56.556 F609.6
G1 X100.019 Y58.489 F609.6
G1 X99.432 Y60.578 F609.6
G1 X99.247 Y62.719 F609.6
G1 X99.307 Y63.910 F609.6
G1 X99.734 Y66.109 F609.6
G1 X100.565 Y68.127 F609.6
G1 X101.791 Y69.963 F609.6
G1 X103.374 Y71.582 F609.6
G1 X105.163 Y72.828 F609.6
G1 X107.131 Y73.661 F609.6
G1 X109.172 Y74.062 F609.6
G1 X110.313 Y74.111 F609.6
G1 X112.009 Y73.989 F609.6
G1 X113.665 Y73.622 F609.6
G1 X115.141 Y73.051 F609.6
G1 X116.598 Y72.203 F609.6
G1 X117.868 Y71.149 F609.6
G1 X118.912 Y69.940 F609.6
G1 X119.784 Y68.524 F609.6
G1 X120.037 Y67.939 F609.6
G1 X120.959 Y67.939 F609.6
G1 X120.000 Y69.861 F609.6
G1 X118.856 Y71.382 F609.6
G1 X117.459 Y72.691 F609.6
G1 X115.874 Y73.740 F609.6
G1 X114.155 Y74.485 F609.6
G1 X112.279 Y74.939 F609.6
G1 X110.227 Y75.092 F609.6
G1 X109.029 Y75.036 F609.6
G1 X107.868 Y74.866 F609.6
G1 X106.764 Y74.588 F609.6
G1 X105.704 Y74.196 F609.6
G1 X104.686 Y73.694 F609.6
G1 X103.695 Y73.070 F609.6
G1 X102.748 Y72.333 F609.6
G1 X101.849 Y71.485 F609.6
G1 X101.022 Y70.521 F609.6
G1 X100.309 Y69.521 F609.6
G1 X99.704 Y68.477 F609.6
G1 X99.216 Y67.409 F609.6
G1 X98.835 Y66.295 F609.6
G1 X98.561 Y65.139 F609.6
G1 X98.398 Y63.941 F609.6
G1 X98.343 Y62.686 F609.6
G1 X98.397 Y61.454 F609.6
G1 X98.561 Y60.270 F609.6
G1 X98.835 Y59.123 F609.6
G1 X99.216 Y58.019 F609.6
G1 X99.700 Y56.966 F609.6
G1 X100.310 Y55.919 F609.6
G1 X101.019 Y54.928 F609.6
G1 X101.853 Y53.958 F609.6
G1 X102.737 Y53.111 F609.6
G1 X103.678 Y52.368 F609.6
G1 X104.643 Y51.757 F609.6
G1 X105.663 Y51.253 F609.6
G1 X106.727 Y50.861 F609.6
G1 X107.841 Y50.581 F609.6
G1 X109.007 Y50.412 F609.6
G1 X110.220 Y50.357 F609.6
G1 X112.296 Y50.519 F609.6
G1 X112.402 Y49.876 F609.6
G1 X114.398 Y50.378 F609.6
G1 X116.253 Y51.217 F609.6
G1 X117.974 Y52.395 F609.6
G1 X119.487 Y53.850 F609.6
G1 X120.728 Y55.521 F609.6
G1 X121.693 Y57.407 F609.6
G1 X122.056 Y58.513 F609.6
G1 X119.869 Y58.513 F609.6
G1 X119.047 Y56.832 F609.6
G1 X118.106 Y55.522 F609.6
G1 X116.970 Y54.390 F609.6
G1 X115.660 Y53.453 F609.6
G1 X114.243 Y52.743 F609.6
G1 X112.731 Y52.265 F609.6
G1 X111.131 Y52.022 F609.6
G1 X110.210 Y51.988 F609.6
G1 X108.158 Y52.195 F609.6
G1 X106.251 Y52.803 F609.6
G1 X104.494 Y53.810 F609.6
G1 X102.903 Y55.204 F609.6
G1 X101.588 Y56.857 F609.6
G1 X100.643 Y58.669 F609.6
G1 X100.079 Y60.635 F609.6
G1 X99.897 Y62.722 F609.6
G1 X99.946 Y63.790 F609.6
G1 X100.337 Y65.865 F609.6
G1 X101.108 Y67.769 F609.6
G1 X102.258 Y69.511 F609.6
G1 X103.748 Y71.051 F609.6
G1 X105.421 Y72.231 F609.6
G1 X107.258 Y73.023 F609.6
G1 X109.244 Y73.416 F609.6
G1 X110.267 Y73.463 F609.6
G1 X111.909 Y73.347 F609.6
G1 X113.432 Y73.015 F609.6
G1 X114.858 Y72.466 F609.6
G1 X116.185 Y71.700 F609.6
G1 X117.377 Y70.724 F609.6
G1 X118.387 Y69.557 F609.6
G1 X119.187 Y68.266 F609.6
G1 X119.610 Y67.289 F609.6
G1 X121.858 Y67.289 F609.6
G1 X121.503 Y68.363 F609.6
G1 X120.552 Y70.209 F609.6
G1 X119.342 Y71.818 F609.6
G1 X117.863 Y73.203 F609.6
G1 X116.185 Y74.313 F609.6
G1 X114.362 Y75.105 F609.6
G1 X112.382 Y75.583 F609.6
G1 X110.234 Y75.744 F609.6
G1 X108.968 Y75.685 F609.6
G1 X107.744 Y75.505 F609.6
G1 X106.570 Y75.209 F609.6
G1 X105.448 Y74.795 F609.6
G1 X104.365 Y74.261 F609.6
G1 X103.323 Y73.605 F609.6
G1 X102.328 Y72.830 F609.6
G1 X101.374 Y71.931 F609.6
G1 X100.510 Y70.924 F609.6
G1 X99.762 Y69.875 F609.6
G1 X99.127 Y68.777 F609.6
G1 X98.613 Y67.652 F609.6
G1 X98.210 Y66.475 F609.6
G1 X97.922 Y65.256 F609.6
G1 X97.750 Y63.999 F609.6
G1 X97.692 Y62.686 F609.6
G1 X97.749 Y61.393 F609.6
G1 X97.922 Y60.152 F609.6
G1 X98.210 Y58.942 F609.6
G1 X98.612 Y57.778 F609.6
G1 X99.124 Y56.664 F609.6
G1 X99.763 Y55.568 F609.6
G1 X100.509 Y54.525 F609.6
G1 X101.377 Y53.515 F609.6
G1 X102.315 Y52.616 F609.6
G1 X103.300 Y51.839 F609.6
G1 X104.323 Y51.191 F609.6
G1 X105.408 Y50.654 F609.6
G1 X106.534 Y50.240 F609.6
G1 X107.719 Y49.943 F609.6
G1 X108.948 Y49.764 F609.6
G1 X110.230 Y49.705 F609.6
G1 X112.402 Y49.876 F609.6
G21
G90
G1 Z3.810 F228.6
G0 X0.000 Y0.000
G4 P0.1
M5